{
  "type": "FeatureCollection",
  "features": [
    {
      "type": "Feature",
      "properties": {
        "norad_id": 37108,
        "name": "COSMOS 2251 DEB",
        "group": "cosmos-2251-debris",
        "lat": -38.10342697915065,
        "lon": 53.71957036204503,
        "alt_km": 824.7368597929772,
        "timestamp": "2025-12-20T05:41:50.428851+00:00",
        "meta_object_name": "COSMOS 2251 DEB",
        "meta_object_id": "1993-036BGE",
        "meta_epoch": "2025-12-19T14:53:35.707488",
        "meta_mean_motion": 14.41350949,
        "meta_eccentricity": 0.00906536,
        "meta_inclination": 74.0446,
        "meta_ra_of_asc_node": 67.8256,
        "meta_arg_of_pericenter": 142.8208,
        "meta_mean_anomaly": 217.9273,
        "meta_ephemeris_type": 0,
        "meta_classification_type": "U",
        "meta_norad_cat_id": 37108,
        "meta_element_set_no": 999,
        "meta_rev_at_epoch": 85606,
        "meta_bstar": 0.00071158692,
        "meta_mean_motion_dot": 2.393e-05,
        "meta_mean_motion_ddot": 0,
        "tle_line1": "1 37108U 93036BGE 25353.62055217  .00002393  00000+0  71159-3 0  9998",
        "tle_line2": "2 37108  74.0446  67.8256 0090653 142.8208 217.9273 14.41350949856064"
      },
      "geometry": {
        "type": "Point",
        "coordinates": [
          53.71957036204503,
          -38.10342697915065
        ]
      }
    },
    {
      "type": "Feature",
      "properties": {
        "norad_id": 37126,
        "name": "COSMOS 2251 DEB",
        "group": "cosmos-2251-debris",
        "lat": -3.7929367401199854,
        "lon": -21.250860065920424,
        "alt_km": 719.8661805701795,
        "timestamp": "2025-12-20T05:41:50.428861+00:00",
        "meta_object_name": "COSMOS 2251 DEB",
        "meta_object_id": "1993-036BGY",
        "meta_epoch": "2025-12-19T16:40:34.585536",
        "meta_mean_motion": 14.73094524,
        "meta_eccentricity": 0.01228877,
        "meta_inclination": 73.9528,
        "meta_ra_of_asc_node": 340.9048,
        "meta_arg_of_pericenter": 217.5702,
        "meta_mean_anomaly": 141.6839,
        "meta_ephemeris_type": 0,
        "meta_classification_type": "U",
        "meta_norad_cat_id": 37126,
        "meta_element_set_no": 999,
        "meta_rev_at_epoch": 8201,
        "meta_bstar": 0.00014887399,
        "meta_mean_motion_dot": 1.041e-05,
        "meta_mean_motion_ddot": 0,
        "tle_line1": "1 37126U 93036BGY 25353.69484474  .00001041  00000+0  14887-3 0  9990",
        "tle_line2": "2 37126  73.9528 340.9048 0122887 217.5702 141.6839 14.73094524 82017"
      },
      "geometry": {
        "type": "Point",
        "coordinates": [
          -21.250860065920424,
          -3.7929367401199854
        ]
      }
    },
    {
      "type": "Feature",
      "properties": {
        "norad_id": 37132,
        "name": "COSMOS 2251 DEB",
        "group": "cosmos-2251-debris",
        "lat": 1.82861855853999,
        "lon": 38.771859027120456,
        "alt_km": 665.3389927994785,
        "timestamp": "2025-12-20T05:41:50.428872+00:00",
        "meta_object_name": "COSMOS 2251 DEB",
        "meta_object_id": "1993-036BHE",
        "meta_epoch": "2025-12-15T09:32:55.769280",
        "meta_mean_motion": 14.77873409,
        "meta_eccentricity": 0.00399597,
        "meta_inclination": 74.0031,
        "meta_ra_of_asc_node": 228.8126,
        "meta_arg_of_pericenter": 24.0962,
        "meta_mean_anomaly": 336.207,
        "meta_ephemeris_type": 0,
        "meta_classification_type": "U",
        "meta_norad_cat_id": 37132,
        "meta_element_set_no": 999,
        "meta_rev_at_epoch": 62455,
        "meta_bstar": 0.00059917342,
        "meta_mean_motion_dot": 4.336e-05,
        "meta_mean_motion_ddot": 0,
        "tle_line1": "1 37132U 93036BHE 25349.39786770  .00004336  00000+0  59917-3 0  9996",
        "tle_line2": "2 37132  74.0031 228.8126 0039959  24.0962 336.2070 14.77873409624553"
      },
      "geometry": {
        "type": "Point",
        "coordinates": [
          38.771859027120456,
          1.82861855853999
        ]
      }
    },
    {
      "type": "Feature",
      "properties": {
        "norad_id": 37270,
        "name": "COSMOS 2251 DEB",
        "group": "cosmos-2251-debris",
        "lat": 33.5923566925461,
        "lon": -25.309196892803378,
        "alt_km": 881.9978272899207,
        "timestamp": "2025-12-20T05:41:50.428882+00:00",
        "meta_object_name": "COSMOS 2251 DEB",
        "meta_object_id": "1993-036BHJ",
        "meta_epoch": "2025-12-12T22:45:06.098400",
        "meta_mean_motion": 13.59808663,
        "meta_eccentricity": 0.03985351,
        "meta_inclination": 73.9378,
        "meta_ra_of_asc_node": 335.5481,
        "meta_arg_of_pericenter": 347.3958,
        "meta_mean_anomaly": 11.7404,
        "meta_ephemeris_type": 0,
        "meta_classification_type": "U",
        "meta_norad_cat_id": 37270,
        "meta_element_set_no": 999,
        "meta_rev_at_epoch": 77072,
        "meta_bstar": 0.0064936549,
        "meta_mean_motion_dot": 8.148e-05,
        "meta_mean_motion_ddot": 0,
        "tle_line1": "1 37270U 93036BHJ 25346.94798725  .00008148  00000+0  64937-2 0  9992",
        "tle_line2": "2 37270  73.9378 335.5481 0398535 347.3958  11.7404 13.59808663770728"
      },
      "geometry": {
        "type": "Point",
        "coordinates": [
          -25.309196892803378,
          33.5923566925461
        ]
      }
    },
    {
      "type": "Feature",
      "properties": {
        "norad_id": 37278,
        "name": "COSMOS 2251 DEB",
        "group": "cosmos-2251-debris",
        "lat": 67.56528976006311,
        "lon": 110.9730922822392,
        "alt_km": 695.4577349989913,
        "timestamp": "2025-12-20T05:41:50.428892+00:00",
        "meta_object_name": "COSMOS 2251 DEB",
        "meta_object_id": "1993-036BHS",
        "meta_epoch": "2025-12-04T09:26:36.152736",
        "meta_mean_motion": 14.15029915,
        "meta_eccentricity": 0.029998,
        "meta_inclination": 73.7864,
        "meta_ra_of_asc_node": 4.3592,
        "meta_arg_of_pericenter": 188.2556,
        "meta_mean_anomaly": 234.4903,
        "meta_ephemeris_type": 0,
        "meta_classification_type": "U",
        "meta_norad_cat_id": 37278,
        "meta_element_set_no": 999,
        "meta_rev_at_epoch": 63711,
        "meta_bstar": 0.0023061,
        "meta_mean_motion_dot": 6.884e-05,
        "meta_mean_motion_ddot": 0,
        "tle_line1": "1 37278U 93036BHS 25338.39347399  .00006884  00000+0  23061-2 0  9995",
        "tle_line2": "2 37278  73.7864   4.3592 0299980 188.2556 234.4903 14.15029915637119"
      },
      "geometry": {
        "type": "Point",
        "coordinates": [
          110.9730922822392,
          67.56528976006311
        ]
      }
    },
    {
      "type": "Feature",
      "properties": {
        "norad_id": 37280,
        "name": "COSMOS 2251 DEB",
        "group": "cosmos-2251-debris",
        "lat": 11.937148448768264,
        "lon": -139.80271952265343,
        "alt_km": 734.5745721765225,
        "timestamp": "2025-12-20T05:41:50.428903+00:00",
        "meta_object_name": "COSMOS 2251 DEB",
        "meta_object_id": "1993-036BHU",
        "meta_epoch": "2025-12-18T10:37:18.156864",
        "meta_mean_motion": 14.19346827,
        "meta_eccentricity": 0.01304682,
        "meta_inclination": 74.0327,
        "meta_ra_of_asc_node": 46.8744,
        "meta_arg_of_pericenter": 174.3277,
        "meta_mean_anomaly": 185.9383,
        "meta_ephemeris_type": 0,
        "meta_classification_type": "U",
        "meta_norad_cat_id": 37280,
        "meta_element_set_no": 999,
        "meta_rev_at_epoch": 57404,
        "meta_bstar": 0.00096951251,
        "meta_mean_motion_dot": 2.193e-05,
        "meta_mean_motion_ddot": 0,
        "tle_line1": "1 37280U 93036BHU 25352.44257126  .00002193  00000+0  96951-3 0  9996",
        "tle_line2": "2 37280  74.0327  46.8744 0130468 174.3277 185.9383 14.19346827574043"
      },
      "geometry": {
        "type": "Point",
        "coordinates": [
          -139.80271952265343,
          11.937148448768264
        ]
      }
    },
    {
      "type": "Feature",
      "properties": {
        "norad_id": 37284,
        "name": "COSMOS 2251 DEB",
        "group": "cosmos-2251-debris",
        "lat": -9.303815390113087,
        "lon": 140.76421843073356,
        "alt_km": 789.050327604903,
        "timestamp": "2025-12-20T05:41:50.428913+00:00",
        "meta_object_name": "COSMOS 2251 DEB",
        "meta_object_id": "1993-036BHY",
        "meta_epoch": "2025-12-10T18:04:20.469216",
        "meta_mean_motion": 14.12686618,
        "meta_eccentricity": 0.01605026,
        "meta_inclination": 74.0123,
        "meta_ra_of_asc_node": 160.2425,
        "meta_arg_of_pericenter": 312.4867,
        "meta_mean_anomaly": 59.8736,
        "meta_ephemeris_type": 0,
        "meta_classification_type": "U",
        "meta_norad_cat_id": 37284,
        "meta_element_set_no": 999,
        "meta_rev_at_epoch": 59147,
        "meta_bstar": 0.001592138,
        "meta_mean_motion_dot": 3.31e-05,
        "meta_mean_motion_ddot": 0,
        "tle_line1": "1 37284U 93036BHY 25344.75301469  .00003310  00000+0  15921-2 0  9994",
        "tle_line2": "2 37284  74.0123 160.2425 0160502 312.4867  59.8736 14.12686618591475"
      },
      "geometry": {
        "type": "Point",
        "coordinates": [
          140.76421843073356,
          -9.303815390113087
        ]
      }
    }
  ]
}